NORAD_CAT_ID,OBJECT_NAME,OBJECT_TYPE,EPOCH,MEAN_MOTION,ECCENTRICITY,INCLINATION,RA_OF_ASC_NODE,ARG_OF_PERICENTER,MEAN_ANOMALY,BSTAR,MEAN_MOTION_DOT,MEAN_MOTION_DDOT,TLE_LINE0,TLE_LINE1,TLE_LINE2,SEMIMAJOR_AXIS,PERIOD,APOGEE,PERIGEE,DECAYED
53530.0,STARLINK-4482,PAYLOAD,2024-03-27 02:38:25,15.08875738,0.0001459,53.2153,33.2368,82.7154,277.4004,0.0016967,0.00026845,0.0,0 STARLINK-4482,1 53530U 22101D   24087.11001244  .00026845  00000-0  16967-2 0  9992,2 53530  53.2153  33.2368 0001459  82.7154 277.4004 15.08875738 88583,6917.771,95.435,540.645,538.627,0.0
53530.0,STARLINK-4482,PAYLOAD,2024-03-28 02:29:11,15.08872747,0.0002209,53.2195,28.7742,108.2896,251.8336,0.001508,0.00023815,0.0,0 STARLINK-4482,1 53530U 22101D   24088.10360532  .00023815  00000-0  15080-2 0  9999,2 53530  53.2195  28.7742 0002209 108.2896 251.8336 15.08872747 88733,6917.78,95.435,541.173,538.117,0.0
53530.0,STARLINK-4482,PAYLOAD,2024-03-28 05:39:57,15.08864018,0.0001224,53.2177,28.1811,103.5089,256.6039,0.0011968,0.00018823,0.0,0 STARLINK-4482,1 53530U 22101D   24088.23608364  .00018823  00000-0  11968-2 0  9995,2 53530  53.2177  28.1811 0001224 103.5089 256.6039 15.08864018 88759,6917.807,95.436,540.519,538.825,0.0
53530.0,STARLINK-4482,PAYLOAD,2024-03-28 13:36:53,15.08828657,0.0001952,53.2172,26.6935,103.8124,256.3085,0.0014154,0.00022303,0.0,0 STARLINK-4482,1 53530U 22101D   24088.56728738  .00022303  00000-0  14154-2 0  9997,2 53530  53.2172  26.6935 0001952 103.8124 256.3085 15.08828657 88808,6917.915,95.438,541.13,538.43,0.0
53530.0,STARLINK-4482,PAYLOAD,2024-03-28 19:58:25,15.08846635,4.22e-05,53.2164,25.505,199.2035,160.8941,0.0009252,0.0001447,0.0,0 STARLINK-4482,1 53530U 22101D   24088.83223733  .00014470  00000-0  92520-3 0  9992,2 53530  53.2164  25.5050 0000422 199.2035 160.8941 15.08846635 88846,6917.86,95.437,540.017,539.433,0.0
53530.0,STARLINK-4482,PAYLOAD,2024-03-28 23:09:11,15.08877778,0.0001411,53.2167,24.9088,108.4243,251.6903,0.0016357,0.00025867,0.0,0 STARLINK-4482,1 53530U 22101D   24088.96471365  .00025867  00000-0  16357-2 0  9997,2 53530  53.2167  24.9088 0001411 108.4243 251.6903 15.08877778 88866,6917.765,95.435,540.606,538.654,0.0
53530.0,STARLINK-4482,PAYLOAD,2024-03-29 02:19:58,15.08832248,0.00016,53.2188,24.3155,91.8789,268.2386,-0.00010999,-2.038e-05,0.0,0 STARLINK-4482,1 53530U 22101D   24089.09720161 -.00002038  00000-0 -10999-3 0  9997,2 53530  53.2188  24.3155 0001600  91.8789 268.2386 15.08832248 88882,6917.904,95.438,540.876,538.662,0.0
53530.0,STARLINK-4482,PAYLOAD,2024-03-29 05:30:44,15.08838966,0.0001886,53.2179,23.7208,104.6355,255.4846,-0.00026662,-4.529e-05,0.0,0 STARLINK-4482,1 53530U 22101D   24089.22967966 -.00004529  00000-0 -26662-3 0  9999,2 53530  53.2179  23.7208 0001886 104.6355 255.4846 15.08838966 88907,6917.884,95.438,541.053,538.444,0.0
53530.0,STARLINK-4482,PAYLOAD,2024-03-29 22:59:59,15.0883122,0.000134,53.2195,20.4485,95.2891,264.8254,0.0001291,1.767e-05,0.0,0 STARLINK-4482,1 53530U 22101D   24089.95832489  .00001767  00000-0  12910-3 0  9990,2 53530  53.2195  20.4485 0001340  95.2891 264.8254 15.08831220 89017,6917.907,95.438,540.699,538.845,0.0
53530.0,STARLINK-4482,PAYLOAD,2024-03-30 11:43:04,15.08837493,0.0001605,53.2191,18.068,77.2693,282.8479,0.00070635,0.00010971,0.0,0 STARLINK-4482,1 53530U 22101D   24090.48824979  .00010971  00000-0  70635-3 0  9990,2 53530  53.2191  18.0680 0001605  77.2693 282.8479 15.08837493 89092,6917.888,95.438,540.863,538.643,0.0
53530.0,STARLINK-4482,PAYLOAD,2024-03-30 22:50:46,15.08836151,0.0001482,53.2187,15.9868,103.1773,256.9384,0.00034332,5.18e-05,0.0,0 STARLINK-4482,1 53530U 22101D   24090.95193125  .00005180  00000-0  34332-3 0  9994,2 53530  53.2187  15.9868 0001482 103.1773 256.9384 15.08836151 89167,6917.892,95.438,540.782,538.732,0.0
53530.0,STARLINK-4482,PAYLOAD,2024-03-31 02:01:33,15.08835429,0.000131,53.2182,15.3928,95.6741,264.4401,3.6597e-05,2.95e-06,0.0,0 STARLINK-4482,1 53530U 22101D   24091.08441182  .00000295  00000-0  36597-4 0  9996,2 53530  53.2182  15.3928 0001310  95.6741 264.4401 15.08835429 89186,6917.894,95.438,540.666,538.853,0.0
53530.0,STARLINK-4482,PAYLOAD,2024-03-31 11:33:52,15.08826534,0.0001274,53.2181,13.6108,100.0539,260.0597,0.00016014,2.261e-05,0.0,0 STARLINK-4482,1 53530U 22101D   24091.48185782  .00002261  00000-0  16014-3 0  9997,2 53530  53.2181  13.6108 0001274 100.0539 260.0597 15.08826534 89243,6917.922,95.438,540.668,538.905,0.0
53530.0,STARLINK-4482,PAYLOAD,2024-04-01 01:52:21,15.08812053,0.0001181,53.2175,10.9332,74.6615,285.4508,-0.00028547,-4.825e-05,0.0,0 STARLINK-4482,1 53530U 22101D   24092.07802856 -.00004825  00000-0 -28547-3 0  9995,2 53530  53.2175  10.9332 0001181  74.6615 285.4508 15.08812053 89337,6917.966,95.439,540.648,539.014,0.0
53530.0,STARLINK-4482,PAYLOAD,2024-04-01 11:24:41,15.08819315,0.0001495,53.2203,9.148,78.9072,281.2088,-3.0413e-05,-7.72e-06,0.0,0 STARLINK-4482,1 53530U 22101D   24092.47547681 -.00000772  00000-0 -30413-4 0  9994,2 53530  53.2203   9.1480 0001495  78.9072 281.2088 15.08819315 89396,6917.944,95.439,540.843,538.774,0.0
53530.0,STARLINK-4482,PAYLOAD,2024-04-01 17:46:13,15.08825108,0.0001057,53.2183,7.9594,84.2441,275.8672,6.4102e-05,7.32e-06,0.0,0 STARLINK-4482,1 53530U 22101D   24092.74043305  .00000732  00000-0  64102-4 0  9994,2 53530  53.2183   7.9594 0001057  84.2441 275.8672 15.08825108 89439,6917.926,95.438,540.522,539.06,0.0
53530.0,STARLINK-4482,PAYLOAD,2024-04-02 03:18:31,15.08847917,0.0001262,53.2183,6.1763,85.9573,274.1564,0.0003861,5.864e-05,0.0,0 STARLINK-4482,1 53530U 22101D   24093.13786025  .00005864  00000-0  38610-3 0  9996,2 53530  53.2183   6.1763 0001262  85.9573 274.1564 15.08847917 89490,6917.856,95.437,540.594,538.848,0.0
53530.0,STARLINK-4482,PAYLOAD,2024-04-02 11:15:26,15.08845886,0.0001286,53.2171,4.6895,88.4537,271.6603,0.00033718,5.083e-05,0.0,0 STARLINK-4482,1 53530U 22101D   24093.46906197  .00005083  00000-0  33718-3 0  9993,2 53530  53.2171   4.6895 0001286  88.4537 271.6603 15.08845886 89545,6917.862,95.437,540.617,538.838,0.0
53530.0,STARLINK-4482,PAYLOAD,2024-04-02 19:12:22,15.08845145,0.0001529,53.2183,3.2044,84.9767,275.1399,0.00024533,3.619e-05,0.0,0 STARLINK-4482,1 53530U 22101D   24093.80026413  .00003619  00000-0  24533-3 0  9993,2 53530  53.2183   3.2044 0001529  84.9767 275.1399 15.08845145 89599,6917.865,95.437,540.787,538.672,0.0
53530.0,STARLINK-4482,PAYLOAD,2024-04-03 11:06:13,15.08846398,0.0001399,53.2173,0.2324,84.64,275.4752,0.0004216,6.429e-05,0.0,0 STARLINK-4482,1 53530U 22101D   24094.46266109  .00006429  00000-0  42160-3 0  9992,2 53530  53.2173   0.2324 0001399  84.6400 275.4752 15.08846398 89690,6917.861,95.437,540.694,538.758,0.0
53530.0,STARLINK-4482,PAYLOAD,2024-04-03 17:27:46,15.08852187,0.0001572,53.2178,359.043,84.2792,275.8379,0.00011672,1.571e-05,0.0,0 STARLINK-4482,1 53530U 22101D   24094.72761641  .00001571  00000-0  11672-3 0  9999,2 53530  53.2178 359.0430 0001572  84.2792 275.8379 15.08852187 89738,6917.843,95.437,540.796,538.621,0.0
53530.0,STARLINK-4482,PAYLOAD,2024-04-04 03:00:04,15.08853296,0.0001559,53.2183,357.2555,93.3876,266.7294,5.9955e-05,6.67e-06,0.0,0 STARLINK-4482,1 53530U 22101D   24095.12505281  .00000667  00000-0  59955-4 0  9992,2 53530  53.2183 357.2555 0001559  93.3876 266.7294 15.08853296 89794,6917.84,95.437,540.783,538.626,0.0
53530.0,STARLINK-4482,PAYLOAD,2024-04-04 10:57:00,15.08844773,0.0001659,53.2191,355.7683,91.2065,268.9117,-7.8566e-06,-4.13e-06,0.0,0 STARLINK-4482,1 53530U 22101D   24095.45625961 -.00000413  00000-0 -78566-5 0  9997,2 53530  53.2191 355.7683 0001659  91.2065 268.9117 15.08844773 89840,6917.866,95.437,540.878,538.583,0.0
53530.0,STARLINK-4482,PAYLOAD,2024-04-04 22:04:42,15.08842666,0.0001378,53.2199,353.6882,91.2163,268.8987,3.6194e-05,2.88e-06,0.0,0 STARLINK-4482,1 53530U 22101D   24095.91993734  .00000288  00000-0  36194-4 0  9992,2 53530  53.2199 353.6882 0001378  91.2163 268.8987 15.08842666 89914,6917.872,95.437,540.691,538.784,0.0
53530.0,STARLINK-4482,PAYLOAD,2024-04-04 23:40:05,15.08844072,0.0001506,53.2201,353.3908,90.6772,269.4393,3.0789e-05,2.02e-06,0.0,0 STARLINK-4482,1 53530U 22101D   24095.98617652  .00000202  00000-0  30789-4 0  9991,2 53530  53.2201 353.3908 0001506  90.6772 269.4393 15.08844072 89928,6917.868,95.437,540.775,538.691,0.0
53530.0,STARLINK-4482,PAYLOAD,2024-04-05 20:20:05,15.08846025,0.000155,53.2194,349.5247,95.2302,264.8867,7.6368e-05,9.28e-06,0.0,0 STARLINK-4482,1 53530U 22101D   24096.84729010  .00000928  00000-0  76368-4 0  9997,2 53530  53.2194 349.5247 0001550  95.2302 264.8867 15.08846025 90052,6917.862,95.437,540.799,538.655,0.0
53530.0,STARLINK-4482,PAYLOAD,2024-04-05 21:55:28,15.08846731,0.0001565,53.2195,349.2273,95.2523,264.8648,8.2853e-05,1.031e-05,0.0,0 STARLINK-4482,1 53530U 22101D   24096.91352946  .00001031  00000-0  82853-4 0  9997,2 53530  53.2195 349.2273 0001565  95.2523 264.8648 15.08846731 90062,6917.86,95.437,540.807,538.642,0.0
53530.0,STARLINK-4482,PAYLOAD,2024-04-05 23:30:51,15.08847936,0.0001628,53.2193,348.928,97.5667,262.551,7.6869e-05,9.36e-06,0.0,0 STARLINK-4482,1 53530U 22101D   24096.97976828  .00000936  00000-0  76869-4 0  9997,2 53530  53.2193 348.9280 0001628  97.5667 262.5510 15.08847936 90070,6917.856,95.437,540.847,538.595,0.0
53530.0,STARLINK-4482,PAYLOAD,2024-04-06 17:00:06,15.08836469,0.0001633,53.2206,345.6601,94.0447,266.0732,8.6041e-05,1.081e-05,0.0,0 STARLINK-4482,1 53530U 22101D   24097.70841397  .00001081  00000-0  86041-4 0  9996,2 53530  53.2206 345.6601 0001633  94.0447 266.0732 15.08836469 90186,6917.891,95.438,540.886,538.626,0.0
53530.0,STARLINK-4482,PAYLOAD,2024-04-06 23:21:39,15.08839597,0.0001507,53.2193,344.4703,97.9082,262.2081,7.0645e-05,8.37e-06,0.0,0 STARLINK-4482,1 53530U 22101D   24097.97337350  .00000837  00000-0  70645-4 0  9995,2 53530  53.2193 344.4703 0001507  97.9082 262.2081 15.08839597 90223,6917.882,95.438,540.789,538.704,0.0
